STARLINK-3843           
1 52341U 22045L   25213.17848628 -.00000322  00000+0 -21491-5 0  9995
2 52341  53.2170 118.9873 0001332  84.5639 275.5505 15.08835241182351
STARLINK-3850           
1 52342U 22045M   25213.14630489 -.00002745  00000+0 -15450-3 0  9994
2 52342  53.2166 109.2952 0001550  98.6560 261.4608 15.08830830182480
STARLINK-3849           
1 52343U 22045N   25212.95032917 -.00000547  00000+0 -16283-4 0  9999
2 52343  53.2164 120.0556 0001423  92.8481 267.2674 15.08841054182327
STARLINK-3851           
1 52344U 22045P   25212.93651271  .00002902  00000+0  20026-3 0  9992
2 52344  53.2184 110.1872 0001966 121.7143 238.4041 15.08859264182454
STARLINK-3852           
1 52345U 22045Q   25213.09574950 -.00000605  00000+0 -19904-4 0  9993
2 52345  53.2171 109.5689 0001407  88.0398 272.0756 15.08835391182469
STARLINK-3812           
1 52346U 22045R   25212.99636677 -.00001545  00000+0 -78984-4 0  9994
2 52346  53.2181 109.8616 0001556  90.5853 269.5317 15.08842389182462
STARLINK-3826           
1 52347U 22045S   25213.00740715 -.00000152  00000+0  85403-5 0  9994
2 52347  53.2175 109.8144 0001366  87.2773 272.8375 15.08836047182460
STARLINK-3829           
1 52348U 22045T   25213.12053038 -.00000213  00000+0  47223-5 0  9999
2 52348  53.2188 109.2912 0001561  98.5797 261.5372 15.08837084182486
STARLINK-3819           
1 52349U 22045U   25212.99909130 -.00000786  00000+0 -31286-4 0  9994
2 52349  53.2157 109.8366 0001477  81.7806 278.3353 15.08845835182469
STARLINK-3754           
1 52350U 22045V   25213.11685091 -.00002584  00000+0 -14428-3 0  9994
2 52350  53.2174 109.3076 0001656  99.8752 260.2427 15.08848562182486
STARLINK-3838           
1 52352U 22045X   25212.97333165  .00000235  00000+0  32846-4 0  9995
2 52352  53.2177 109.9566 0001521  88.8112 271.3054 15.08836006182467
STARLINK-3807           
1 52353U 22045Y   25213.11317150 -.00001054  00000+0 -48161-4 0  9998
2 52353  53.2175 109.3257 0001400  94.8951 265.2201 15.08836258182488
STARLINK-3876           
1 52354U 22045Z   25213.15690019  .01270728  11792-4  65015-3 0  9997
2 52354  53.2088  79.6221 0006689 260.1736 195.4724 16.19771705182904
STARLINK-3877           
1 52355U 22045AA  25212.91077203  .00001521  00000+0  11366-3 0  9992
2 52355  53.2178 110.2371 0001508  80.9210 279.1953 15.08835743182457
STARLINK-3801           
1 52356U 22045AB  25213.09845625  .00000452  00000+0  46524-4 0  9991
2 52356  53.2180 109.4263 0001413  95.5213 264.5941 15.08835884182485
STARLINK-3821           
1 52357U 22045AC  25212.96965146 -.00000676  00000+0 -24356-4 0  9997
2 52357  53.2181 109.9766 0001569  95.6472 264.4699 15.08838130182464
