[{"OBJECT_NAME":"STARLINK-3843","OBJECT_ID":"2022-045L","EPOCH":"2025-08-01T04:17:01.214592","MEAN_MOTION":15.08835241,"ECCENTRICITY":0.0001332,"INCLINATION":53.217,"RA_OF_ASC_NODE":118.9873,"ARG_OF_PERICENTER":84.5639,"MEAN_ANOMALY":275.5505,"EPHEMERIS_TYPE":0,"CLASSIFICATION_TYPE":"U","NORAD_CAT_ID":52341,"ELEMENT_SET_NO":999,"REV_AT_EPOCH":18235,"BSTAR":-2.1491e-6,"MEAN_MOTION_DOT":-3.22e-6,"MEAN_MOTION_DDOT":0},{"OBJECT_NAME":"STARLINK-3850","OBJECT_ID":"2022-045M","EPOCH":"2025-08-01T03:30:40.742496","MEAN_MOTION":15.0883083,"ECCENTRICITY":0.000155,"INCLINATION":53.2166,"RA_OF_ASC_NODE":109.2952,"ARG_OF_PERICENTER":98.656,"MEAN_ANOMALY":261.4608,"EPHEMERIS_TYPE":0,"CLASSIFICATION_TYPE":"U","NORAD_CAT_ID":52342,"ELEMENT_SET_NO":999,"REV_AT_EPOCH":18248,"BSTAR":-0.0001545,"MEAN_MOTION_DOT":-2.745e-5,"MEAN_MOTION_DDOT":0},{"OBJECT_NAME":"STARLINK-3849","OBJECT_ID":"2022-045N","EPOCH":"2025-07-31T22:48:28.440288","MEAN_MOTION":15.08841054,"ECCENTRICITY":0.0001423,"INCLINATION":53.2164,"RA_OF_ASC_NODE":120.0556,"ARG_OF_PERICENTER":92.8481,"MEAN_ANOMALY":267.2674,"EPHEMERIS_TYPE":0,"CLASSIFICATION_TYPE":"U","NORAD_CAT_ID":52343,"ELEMENT_SET_NO":999,"REV_AT_EPOCH":18232,"BSTAR":-1.6283e-5,"MEAN_MOTION_DOT":-5.47e-6,"MEAN_MOTION_DDOT":0},{"OBJECT_NAME":"STARLINK-3851","OBJECT_ID":"2022-045P","EPOCH":"2025-07-31T22:28:34.698144","MEAN_MOTION":15.08859264,"ECCENTRICITY":0.0001966,"INCLINATION":53.2184,"RA_OF_ASC_NODE":110.1872,"ARG_OF_PERICENTER":121.7143,"MEAN_ANOMALY":238.4041,"EPHEMERIS_TYPE":0,"CLASSIFICATION_TYPE":"U","NORAD_CAT_ID":52344,"ELEMENT_SET_NO":999,"REV_AT_EPOCH":18245,"BSTAR":0.00020026,"MEAN_MOTION_DOT":2.902e-5,"MEAN_MOTION_DDOT":0},{"OBJECT_NAME":"STARLINK-3852","OBJECT_ID":"2022-045Q","EPOCH":"2025-08-01T02:17:52.756800","MEAN_MOTION":15.08835391,"ECCENTRICITY":0.0001407,"INCLINATION":53.2171,"RA_OF_ASC_NODE":109.5689,"ARG_OF_PERICENTER":88.0398,"MEAN_ANOMALY":272.0756,"EPHEMERIS_TYPE":0,"CLASSIFICATION_TYPE":"U","NORAD_CAT_ID":52345,"ELEMENT_SET_NO":999,"REV_AT_EPOCH":18246,"BSTAR":-1.9904e-5,"MEAN_MOTION_DOT":-6.05e-6,"MEAN_MOTION_DDOT":0},{"OBJECT_NAME":"STARLINK-3812","OBJECT_ID":"2022-045R","EPOCH":"2025-07-31T23:54:46.088928","MEAN_MOTION":15.08842389,"ECCENTRICITY":0.0001556,"INCLINATION":53.2181,"RA_OF_ASC_NODE":109.8616,"ARG_OF_PERICENTER":90.5853,"MEAN_ANOMALY":269.5317,"EPHEMERIS_TYPE":0,"CLASSIFICATION_TYPE":"U","NORAD_CAT_ID":52346,"ELEMENT_SET_NO":999,"REV_AT_EPOCH":18246,"BSTAR":-7.8984e-5,"MEAN_MOTION_DOT":-1.545e-5,"MEAN_MOTION_DDOT":0},{"OBJECT_NAME":"STARLINK-3826","OBJECT_ID":"2022-045S","EPOCH":"2025-08-01T00:10:39.977760","MEAN_MOTION":15.08836047,"ECCENTRICITY":0.0001366,"INCLINATION":53.2175,"RA_OF_ASC_NODE":109.8144,"ARG_OF_PERICENTER":87.2773,"MEAN_ANOMALY":272.8375,"EPHEMERIS_TYPE":0,"CLASSIFICATION_TYPE":"U","NORAD_CAT_ID":52347,"ELEMENT_SET_NO":999,"REV_AT_EPOCH":18246,"BSTAR":8.5403e-6,"MEAN_MOTION_DOT":-1.52e-6,"MEAN_MOTION_DDOT":0},{"OBJECT_NAME":"STARLINK-3829","OBJECT_ID":"2022-045T","EPOCH":"2025-08-01T02:53:33.824832","MEAN_MOTION":15.08837084,"ECCENTRICITY":0.0001561,"INCLINATION":53.2188,"RA_OF_ASC_NODE":109.2912,"ARG_OF_PERICENTER":98.5797,"MEAN_ANOMALY":261.5372,"EPHEMERIS_TYPE":0,"CLASSIFICATION_TYPE":"U","NORAD_CAT_ID":52348,"ELEMENT_SET_NO":999,"REV_AT_EPOCH":18248,"BSTAR":4.7223e-6,"MEAN_MOTION_DOT":-2.13e-6,"MEAN_MOTION_DDOT":0},{"OBJECT_NAME":"STARLINK-3819","OBJECT_ID":"2022-045U","EPOCH":"2025-07-31T23:58:41.488320","MEAN_MOTION":15.08845835,"ECCENTRICITY":0.0001477,"INCLINATION":53.2157,"RA_OF_ASC_NODE":109.8366,"ARG_OF_PERICENTER":81.7806,"MEAN_ANOMALY":278.3353,"EPHEMERIS_TYPE":0,"CLASSIFICATION_TYPE":"U","NORAD_CAT_ID":52349,"ELEMENT_SET_NO":999,"REV_AT_EPOCH":18246,"BSTAR":-3.1286e-5,"MEAN_MOTION_DOT":-7.86e-6,"MEAN_MOTION_DDOT":0},{"OBJECT_NAME":"STARLINK-3754","OBJECT_ID":"2022-045V","EPOCH":"2025-08-01T02:48:15.918624","MEAN_MOTION":15.08848562,"ECCENTRICITY":0.0001656,"INCLINATION":53.2174,"RA_OF_ASC_NODE":109.3076,"ARG_OF_PERICENTER":99.8752,"MEAN_ANOMALY":260.2427,"EPHEMERIS_TYPE":0,"CLASSIFICATION_TYPE":"U","NORAD_CAT_ID":52350,"ELEMENT_SET_NO":999,"REV_AT_EPOCH":18248,"BSTAR":-0.00014428,"MEAN_MOTION_DOT":-2.584e-5,"MEAN_MOTION_DDOT":0},{"OBJECT_NAME":"STARLINK-3838","OBJECT_ID":"2022-045X","EPOCH":"2025-07-31T23:21:35.854560","MEAN_MOTION":15.08836006,"ECCENTRICITY":0.0001521,"INCLINATION":53.2177,"RA_OF_ASC_NODE":109.9566,"ARG_OF_PERICENTER":88.8112,"MEAN_ANOMALY":271.3054,"EPHEMERIS_TYPE":0,"CLASSIFICATION_TYPE":"U","NORAD_CAT_ID":52352,"ELEMENT_SET_NO":999,"REV_AT_EPOCH":18246,"BSTAR":3.2846e-5,"MEAN_MOTION_DOT":2.35e-6,"MEAN_MOTION_DDOT":0},{"OBJECT_NAME":"STARLINK-3807","OBJECT_ID":"2022-045Y","EPOCH":"2025-08-01T02:42:58.017600","MEAN_MOTION":15.08836258,"ECCENTRICITY":0.00014,"INCLINATION":53.2175,"RA_OF_ASC_NODE":109.3257,"ARG_OF_PERICENTER":94.8951,"MEAN_ANOMALY":265.2201,"EPHEMERIS_TYPE":0,"CLASSIFICATION_TYPE":"U","NORAD_CAT_ID":52353,"ELEMENT_SET_NO":999,"REV_AT_EPOCH":18248,"BSTAR":-4.8161e-5,"MEAN_MOTION_DOT":-1.054e-5,"MEAN_MOTION_DDOT":0},{"OBJECT_NAME":"STARLINK-3876","OBJECT_ID":"2022-045Z","EPOCH":"2025-08-01T03:45:56.176416","MEAN_MOTION":16.19771705,"ECCENTRICITY":0.0006689,"INCLINATION":53.2088,"RA_OF_ASC_NODE":79.6221,"ARG_OF_PERICENTER":260.1736,"MEAN_ANOMALY":195.4724,"EPHEMERIS_TYPE":0,"CLASSIFICATION_TYPE":"U","NORAD_CAT_ID":52354,"ELEMENT_SET_NO":999,"REV_AT_EPOCH":18290,"BSTAR":0.00065015,"MEAN_MOTION_DOT":0.01270728,"MEAN_MOTION_DDOT":1.1792e-5},{"OBJECT_NAME":"STARLINK-3877","OBJECT_ID":"2022-045AA","EPOCH":"2025-07-31T21:51:30.703392","MEAN_MOTION":15.08835743,"ECCENTRICITY":0.0001508,"INCLINATION":53.2178,"RA_OF_ASC_NODE":110.2371,"ARG_OF_PERICENTER":80.921,"MEAN_ANOMALY":279.1953,"EPHEMERIS_TYPE":0,"CLASSIFICATION_TYPE":"U","NORAD_CAT_ID":52355,"ELEMENT_SET_NO":999,"REV_AT_EPOCH":18245,"BSTAR":0.00011366,"MEAN_MOTION_DOT":1.521e-5,"MEAN_MOTION_DDOT":0},{"OBJECT_NAME":"STARLINK-3801","OBJECT_ID":"2022-045AB","EPOCH":"2025-08-01T02:21:46.620000","MEAN_MOTION":15.08835884,"ECCENTRICITY":0.0001413,"INCLINATION":53.218,"RA_OF_ASC_NODE":109.4263,"ARG_OF_PERICENTER":95.5213,"MEAN_ANOMALY":264.5941,"EPHEMERIS_TYPE":0,"CLASSIFICATION_TYPE":"U","NORAD_CAT_ID":52356,"ELEMENT_SET_NO":999,"REV_AT_EPOCH":18248,"BSTAR":4.6524e-5,"MEAN_MOTION_DOT":4.52e-6,"MEAN_MOTION_DDOT":0},{"OBJECT_NAME":"STARLINK-3821","OBJECT_ID":"2022-045AC","EPOCH":"2025-07-31T23:16:17.886144","MEAN_MOTION":15.0883813,"ECCENTRICITY":0.0001569,"INCLINATION":53.2181,"RA_OF_ASC_NODE":109.9766,"ARG_OF_PERICENTER":95.6472,"MEAN_ANOMALY":264.4699,"EPHEMERIS_TYPE":0,"CLASSIFICATION_TYPE":"U","NORAD_CAT_ID":52357,"ELEMENT_SET_NO":999,"REV_AT_EPOCH":18246,"BSTAR":-2.4356e-5,"MEAN_MOTION_DOT":-6.76e-6,"MEAN_MOTION_DDOT":0}]
